ONEWEB-0228             
1 48780U 21045P   24214.88110528  .00000234  00000+0  59103-3 0  9994
2 48780  87.9018  35.3512 0001705  85.9545 274.1780 13.15071925155486
